CCSDS_OMM_VERS,COMMENT,CREATION_DATE,ORIGINATOR,OBJECT_NAME,OBJECT_ID,CENTER_NAME,REF_FRAME,TIME_SYSTEM,MEAN_ELEMENT_THEORY,EPOCH,MEAN_MOTION,ECCENTRICITY,INCLINATION,RA_OF_ASC_NODE,ARG_OF_PERICENTER,MEAN_ANOMALY,EPHEMERIS_TYPE,CLASSIFICATION_TYPE,NORAD_CAT_ID,ELEMENT_SET_NO,REV_AT_EPOCH,BSTAR,MEAN_MOTION_DOT,MEAN_MOTION_DDOT,SEMIMAJOR_AXIS,PERIOD,APOAPSIS,PERIAPSIS,OBJECT_TYPE,RCS_SIZE,COUNTRY_CODE,LAUNCH_DATE,SITE,DECAY_DATE,FILE,GP_ID,TLE_LINE0,TLE_LINE1,TLE_LINE2
"3.0","GENERATED VIA SPACE-TRACK.ORG API","2025-07-06T07:06:47","18 SPCS","NOAA 16 DEB","2000-055MS","EARTH","TEME","UTC","SGP4","2025-07-05T21:45:47.446560","15.61759299","0.00226540","98.7794","350.4808","298.9792","60.9191","0","U","41518","999","48044","0.01567800000000","0.01530237","0.0000000000000","6760.712","92.204","397.893","367.261","DEBRIS","SMALL","US","2000-09-21","AFWTR","2025-07-15","4776956","291807422","0 NOAA 16 DEB","1 41518U 00055MS  25186.90679915  .01530237  00000-0  15678-1 0  9996","2 41518  98.7794 350.4808 0022654 298.9792  60.9191 15.61759299480448"
"3.0","GENERATED VIA SPACE-TRACK.ORG API","2025-07-06T18:05:35","18 SPCS","FLOCK 4Y 17","2023-001Y","EARTH","TEME","UTC","SGP4","2025-07-05T22:11:42.205056","16.37827167","0.00153060","97.3374","263.2357","259.8420","100.1152","0","U","55031","999","14010","0.00114940000000","0.11577198","0.0000024973000","6549.726","87.921","181.616","161.566","PAYLOAD","MEDIUM","US","2023-01-03","AFETR","2025-07-12","4777297","291837732","0 FLOCK 4Y 17","1 55031U 23001Y   25186.92479404  .11577198  24973-5  11494-2 0  9991","2 55031  97.3374 263.2357 0015306 259.8420 100.1152 16.37827167140106"
"3.0","GENERATED VIA SPACE-TRACK.ORG API","2025-07-06T09:46:16","18 SPCS","STARLINK-1959","2021-009N","EARTH","TEME","UTC","SGP4","2025-07-06T08:35:53.003040","16.45861438","0.00102570","53.0139","330.2555","271.0133","180.9011","0","U","47560","999","24535","0.00035472000000","0.16272777","0.0000125290000","6528.394","87.492","156.955","143.562","PAYLOAD","LARGE","US","2021-02-04","AFETR","2025-07-06","4777012","291808738","0 STARLINK-1959","1 47560U 21009N   25187.35825235  .16272777  12529-4  35472-3 0  9996","2 47560  53.0139 330.2555 0010257 271.0133 180.9011 16.45861438245355"
"3.0","GENERATED VIA SPACE-TRACK.ORG API","2025-07-06T13:56:28","18 SPCS","STARLINK-1761","2021-012G","EARTH","TEME","UTC","SGP4","2025-07-06T13:26:42.703008","16.47248742","0.00146220","53.0305","51.8524","203.6722","246.2739","0","U","47626","999","24299","0.00025114000000","0.16370005","0.0000123370000","6524.728","87.418","156.133","137.052","PAYLOAD","LARGE","US","2021-02-16","AFETR","2025-07-06","4777016","291808742","0 STARLINK-1761","1 47626U 21012G   25187.56021647  .16370005  12337-4  25114-3 0  9993","2 47626  53.0305  51.8524 0014622 203.6722 246.2739 16.47248742242999"
"3.0","GENERATED VIA SPACE-TRACK.ORG API","2025-07-07T05:18:27","18 SPCS","FENGYUN 1C DEB","1999-025BWU","EARTH","TEME","UTC","SGP4","2025-07-06T19:18:16.796448","15.66931004","0.00210130","101.8729","133.1395","146.8856","213.3708","0","U","31505","999","94404","0.01661800000000","0.02012309","0.0000000000000","6745.828","91.899","381.868","353.518","DEBRIS","SMALL","PRC","1999-05-10","TSC","2025-07-18","4777611","291863173","0 FENGYUN 1C DEB","1 31505U 99025BWU 25187.80436107  .02012309  00000-0  16618-1 0  9991","2 31505 101.8729 133.1395 0021013 146.8856 213.3708 15.66931004944044"
"3.0","GENERATED VIA SPACE-TRACK.ORG API","2025-07-07T05:18:27","18 SPCS","CZ-6A DEB","2024-140KT","EARTH","TEME","UTC","SGP4","2025-07-06T19:49:27.352128","15.91328836","0.00344230","88.9089","308.0172","305.4509","54.3563","0","U","60888","999","4683","0.02645700000000","0.06940567","0.0703220000000","6676.700","90.490","321.549","275.582","DEBRIS","SMALL","PRC","2024-08-06","TSC","2025-07-12","4777611","291880532","0 CZ-6A DEB","1 60888U 24140KT  25187.82601102  .06940567  70322-1  26457-1 0  9991","2 60888  88.9089 308.0172 0034423 305.4509  54.3563 15.91328836 46830"
"3.0","GENERATED VIA SPACE-TRACK.ORG API","2025-07-07T06:56:17","18 SPCS","FLOCK 4Y 32","2023-001N","EARTH","TEME","UTC","SGP4","2025-07-06T21:58:49.948032","16.33924778","0.00163190","97.3428","264.5944","267.3962","92.5466","0","U","55021","999","14031","0.00134700000000","0.08954373","0.0000024801000","6560.150","88.131","192.721","171.310","PAYLOAD","MEDIUM","US","2023-01-03","AFETR","2025-07-12","4777812","291889393","0 FLOCK 4Y 32","1 55021U 23001N   25187.91585588  .08954373  24801-5  13470-2 0  9997","2 55021  97.3428 264.5944 0016319 267.3962  92.5466 16.33924778140318"
"3.0","GENERATED VIA SPACE-TRACK.ORG API","2025-07-07T02:56:16","18 SPCS","CZ-2C DEB","2008-041D","EARTH","TEME","UTC","SGP4","2025-07-07T01:09:56.175840","16.43706963","0.00111000","97.6044","189.6667","232.7181","177.7115","0","U","33323","999","91423","0.00130740000000","0.39229303","0.0000028446000","6534.097","87.607","163.215","148.709","DEBRIS","LARGE","PRC","2008-09-06","TSC","2025-07-07","4777608","291853894","0 CZ-2C DEB","1 33323U 08041D   25188.04856685  .39229303  28446-5  13074-2 0  9990","2 33323  97.6044 189.6667 0011100 232.7181 177.7115 16.43706963914239"
"3.0","GENERATED VIA SPACE-TRACK.ORG API","2025-07-07T18:34:59","18 SPCS","JIELONG 3 DEB","2023-190B","EARTH","TEME","UTC","SGP4","2025-07-07T01:31:44.241600","16.32147798","0.00117880","86.5212","35.6777","354.9804","5.1379","0","U","58506","999","8770","0.00114260000000","0.06177803","-0.0000014875000","6564.911","88.227","194.515","179.037","DEBRIS","MEDIUM","PRC","2023-12-05","SCSLA","2025-07-12","4778094","291920837","0 JIELONG 3 DEB","1 58506U 23190B   25188.06370650  .06177803 -14875-5  11426-2 0  9999","2 58506  86.5212  35.6777 0011788 354.9804   5.1379 16.32147798 87708"
"3.0","GENERATED VIA SPACE-TRACK.ORG API","2025-07-07T23:06:17","18 SPCS","COSMOS 2251 DEB","1993-036PQ","EARTH","TEME","UTC","SGP4","2025-07-07T19:46:17.151168","16.27021455","0.00162580","74.1180","95.9230","213.9229","146.0986","0","U","34342","999","87745","0.00373250000000","0.13032321","0.0000018000000","6578.694","88.505","211.254","189.863","DEBRIS","SMALL","CIS","1993-06-16","PKMTR","2025-07-12","4778387","291933223","0 COSMOS 2251 DEB","1 34342U 93036PQ  25188.82380962  .13032321  18000-5  37325-2 0  9990","2 34342  74.1180  95.9230 0016258 213.9229 146.0986 16.27021455877455"
"3.0","GENERATED VIA SPACE-TRACK.ORG API","2025-07-07T22:06:17","18 SPCS","STARLINK-5560","2023-028J","EARTH","TEME","UTC","SGP4","2025-07-07T21:38:27.258432","16.54083715","0.00104660","69.9691","120.2006","247.3202","228.2759","0","U","55749","999","12988","0.00014842000000","0.24789742","0.0000045349000","6506.741","87.057","135.416","121.796","PAYLOAD","LARGE","US","2023-03-03","AFWTR","2025-07-07","4778109","291926031","0 STARLINK-5560","1 55749U 23028J   25188.90170438  .24789742  45349-5  14842-3 0  9996","2 55749  69.9691 120.2006 0010466 247.3202 228.2759 16.54083715129883"
"3.0","GENERATED VIA SPACE-TRACK.ORG API","2025-07-08T17:26:03","18 SPCS","COSMOS 2251 DEB","1993-036CT","EARTH","TEME","UTC","SGP4","2025-07-08T07:41:05.502912","16.07861922","0.00194230","73.9638","161.9194","217.3653","142.6241","0","U","33890","999","87122","0.00840780000000","0.04811925","0.0635310000000","6630.852","89.560","265.596","239.838","DEBRIS","SMALL","CIS","1993-06-16","PKMTR","2025-07-12","4779207","291993618","0 COSMOS 2251 DEB","1 33890U 93036CT  25189.32020258  .04811925  63531-1  84078-2 0  9999","2 33890  73.9638 161.9194 0019423 217.3653 142.6241 16.07861922871220"
"3.0","GENERATED VIA SPACE-TRACK.ORG API","2025-07-09T01:16:18","18 SPCS","TBA - TO BE ASSIGNED","UNKNOWN","EARTH","TEME","UTC","SGP4","2025-07-09T00:19:42.439296","14.23867620","0.00389800","10.9952","43.2446","242.8706","181.0479","0","U","85437","999","1","0.00000000000000","0.00000426","0.0000000000000","7190.439","101.133","840.333","784.276","UNKNOWN","","","","","","4779528","292020188","0 TBA - TO BE ASSIGNED","1 85437U          25190.01368564  .00000426  00000-0  00000+0 0  9998","2 85437  10.9952  43.2446 0038980 242.8706 181.0479 14.23867620    15"
"3.0","GENERATED VIA SPACE-TRACK.ORG API","2025-07-09T06:06:31","18 SPCS","STARLINK-4671","2022-104F","EARTH","TEME","UTC","SGP4","2025-07-09T05:32:24.632160","16.36747316","0.00033460","53.1528","177.8612","270.5792","186.6965","0","U","53593","999","15927","0.00116990000000","0.10959571","0.0000122630000","6552.606","87.979","176.664","172.279","PAYLOAD","LARGE","US","2022-08-28","AFETR","2025-07-09","4779537","292050467","0 STARLINK-4671","1 53593U 22104F   25190.23084065  .10959571  12263-4  11699-2 0  9992","2 53593  53.1528 177.8612 0003346 270.5792 186.6965 16.36747316159270"
"3.0","GENERATED VIA SPACE-TRACK.ORG API","2025-07-09T22:06:16","18 SPCS","STARLINK-2210","2021-017BH","EARTH","TEME","UTC","SGP4","2025-07-09T20:50:26.805120","16.45244964","0.00079600","53.0249","173.7874","277.9953","167.2142","0","U","47777","999","24116","0.00042865000000","0.16444616","0.0000125270000","6530.024","87.525","157.087","146.691","PAYLOAD","LARGE","US","2021-03-04","AFETR","2025-07-10","4780052","292093288","0 STARLINK-2210","1 47777U 21017BH  25190.86836580  .16444616  12527-4  42865-3 0  9995","2 47777  53.0249 173.7874 0007960 277.9953 167.2142 16.45244964241160"
"3.0","GENERATED VIA SPACE-TRACK.ORG API","2025-07-10T00:36:16","18 SPCS","TBA - TO BE ASSIGNED","UNKNOWN","EARTH","TEME","UTC","SGP4","2025-07-09T23:33:15.741216","14.41419076","0.00560410","10.7577","36.3504","87.5360","328.6628","0","U","85438","999","294","0.00000000000000","0.00000450","0.0000000000000","7131.951","99.902","793.784","713.848","UNKNOWN","","","","","","4780391","292101668","0 TBA - TO BE ASSIGNED","1 85438U          25190.98143219  .00000450  00000-0  00000+0 0  9990","2 85438  10.7577  36.3504 0056041  87.5360 328.6628 14.41419076  2940"
